[{"OBJECT_NAME":"HELIOS 1B","OBJECT_ID":"1999-064A","EPOCH":"2026-04-07T03:55:06.393216","MEAN_MOTION":14.87819047,"ECCENTRICITY":0.00013257,"INCLINATION":98.1659,"RA_OF_ASC_NODE":0.2402,"ARG_OF_PERICENTER":41.4302,"MEAN_ANOMALY":318.7013,"EPHEMERIS_TYPE":0,"CLASSIFICATION_TYPE":"U","NORAD_CAT_ID":25977,"ELEMENT_SET_NO":999,"REV_AT_EPOCH":68949,"BSTAR":0.00020311399,"MEAN_MOTION_DOT":1.797e-5,"MEAN_MOTION_DDOT":0},{"OBJECT_NAME":"TERRA","OBJECT_ID":"1999-068A","EPOCH":"2026-04-07T04:50:35.861280","MEAN_MOTION":14.61047438,"ECCENTRICITY":0.00036618,"INCLINATION":97.9534,"RA_OF_ASC_NODE":149.5387,"ARG_OF_PERICENTER":93.4204,"MEAN_ANOMALY":309.1852,"EPHEMERIS_TYPE":0,"CLASSIFICATION_TYPE":"U","NORAD_CAT_ID":25994,"ELEMENT_SET_NO":999,"REV_AT_EPOCH":39924,"BSTAR":0.00011424676,"MEAN_MOTION_DOT":5.17e-6,"MEAN_MOTION_DDOT":0},{"OBJECT_NAME":"SL-16 R/B","OBJECT_ID":"2000-006B","EPOCH":"2026-04-07T04:51:21.731904","MEAN_MOTION":14.15831507,"ECCENTRICITY":0.00150557,"INCLINATION":71.0044,"RA_OF_ASC_NODE":37.8813,"ARG_OF_PERICENTER":145.0489,"MEAN_ANOMALY":215.1625,"EPHEMERIS_TYPE":0,"CLASSIFICATION_TYPE":"U","NORAD_CAT_ID":26070,"ELEMENT_SET_NO":999,"REV_AT_EPOCH":35259,"BSTAR":3.975275e-6,"MEAN_MOTION_DOT":-4.0e-7,"MEAN_MOTION_DDOT":0},{"OBJECT_NAME":"TITAN 4B R/B","OBJECT_ID":"2000-047B","EPOCH":"2026-04-07T02:50:53.769696","MEAN_MOTION":15.09830204,"ECCENTRICITY":0.00407257,"INCLINATION":67.9897,"RA_OF_ASC_NODE":320.5557,"ARG_OF_PERICENTER":2.3671,"MEAN_ANOMALY":357.7663,"EPHEMERIS_TYPE":0,"CLASSIFICATION_TYPE":"U","NORAD_CAT_ID":26474,"ELEMENT_SET_NO":999,"REV_AT_EPOCH":39720,"BSTAR":0.0002155413,"MEAN_MOTION_DOT":3.425e-5,"MEAN_MOTION_DDOT":0},{"OBJECT_NAME":"ENVISAT","OBJECT_ID":"2002-009A","EPOCH":"2026-04-06T20:03:08.630784","MEAN_MOTION":14.39047524,"ECCENTRICITY":0.00011638,"INCLINATION":98.3773,"RA_OF_ASC_NODE":49.771,"ARG_OF_PERICENTER":82.5432,"MEAN_ANOMALY":307.1961,"EPHEMERIS_TYPE":0,"CLASSIFICATION_TYPE":"U","NORAD_CAT_ID":27386,"ELEMENT_SET_NO":999,"REV_AT_EPOCH":26322,"BSTAR":6.9242166e-5,"MEAN_MOTION_DOT":1.71e-6,"MEAN_MOTION_DDOT":0},{"OBJECT_NAME":"IDEFIX & ARIANE 42P R/B","OBJECT_ID":"2002-021B","EPOCH":"2026-04-07T05:35:10.723200","MEAN_MOTION":14.3104704,"ECCENTRICITY":0.00129149,"INCLINATION":98.59,"RA_OF_ASC_NODE":35.5037,"ARG_OF_PERICENTER":101.93,"MEAN_ANOMALY":258.3331,"EPHEMERIS_TYPE":0,"CLASSIFICATION_TYPE":"U","NORAD_CAT_ID":27422,"ELEMENT_SET_NO":999,"REV_AT_EPOCH":24810,"BSTAR":0.00014618531,"MEAN_MOTION_DOT":3.42e-6,"MEAN_MOTION_DDOT":0},{"OBJECT_NAME":"AQUA","OBJECT_ID":"2002-022A","EPOCH":"2026-04-07T05:39:46.429920","MEAN_MOTION":14.62047375,"ECCENTRICITY":0.00015032,"INCLINATION":98.4222,"RA_OF_ASC_NODE":65.1316,"ARG_OF_PERICENTER":113.7367,"MEAN_ANOMALY":11.4108,"EPHEMERIS_TYPE":0,"CLASSIFICATION_TYPE":"U","NORAD_CAT_ID":27424,"ELEMENT_SET_NO":999,"REV_AT_EPOCH":27290,"BSTAR":0.00024889964,"MEAN_MOTION_DOT":1.2e-5,"MEAN_MOTION_DDOT":0},{"OBJECT_NAME":"CZ-4B R/B","OBJECT_ID":"2002-024C","EPOCH":"2026-04-07T05:18:20.796192","MEAN_MOTION":14.14553112,"ECCENTRICITY":0.00491772,"INCLINATION":98.8779,"RA_OF_ASC_NODE":150.476,"ARG_OF_PERICENTER":302.618,"MEAN_ANOMALY":101.0472,"EPHEMERIS_TYPE":0,"CLASSIFICATION_TYPE":"U","NORAD_CAT_ID":27432,"ELEMENT_SET_NO":999,"REV_AT_EPOCH":23327,"BSTAR":4.5381945e-5,"MEAN_MOTION_DOT":4.3e-7,"MEAN_MOTION_DDOT":0},{"OBJECT_NAME":"MIDORI II (ADEOS-II)","OBJECT_ID":"2002-056A","EPOCH":"2026-04-07T03:43:47.407584","MEAN_MOTION":14.29308419,"ECCENTRICITY":2.556e-5,"INCLINATION":98.7818,"RA_OF_ASC_NODE":55.8388,"ARG_OF_PERICENTER":27.7733,"MEAN_ANOMALY":332.3462,"EPHEMERIS_TYPE":0,"CLASSIFICATION_TYPE":"U","NORAD_CAT_ID":27597,"ELEMENT_SET_NO":999,"REV_AT_EPOCH":21436,"BSTAR":0.00016578913,"MEAN_MOTION_DOT":3.77e-6,"MEAN_MOTION_DDOT":0},{"OBJECT_NAME":"H-2A R/B","OBJECT_ID":"2002-056E","EPOCH":"2026-04-07T04:05:21.346080","MEAN_MOTION":14.33782256,"ECCENTRICITY":0.00714068,"INCLINATION":98.3252,"RA_OF_ASC_NODE":56.4605,"ARG_OF_PERICENTER":76.9399,"MEAN_ANOMALY":293.552,"EPHEMERIS_TYPE":0,"CLASSIFICATION_TYPE":"U","NORAD_CAT_ID":27601,"ELEMENT_SET_NO":999,"REV_AT_EPOCH":21819,"BSTAR":0.00015109708,"MEAN_MOTION_DOT":3.91e-6,"MEAN_MOTION_DDOT":0},{"OBJECT_NAME":"CZ-4B R/B","OBJECT_ID":"2003-049C","EPOCH":"2026-04-07T06:22:45.748992","MEAN_MOTION":14.5504753,"ECCENTRICITY":0.00488226,"INCLINATION":98.69,"RA_OF_ASC_NODE":93.2971,"ARG_OF_PERICENTER":143.4066,"MEAN_ANOMALY":217.0481,"EPHEMERIS_TYPE":0,"CLASSIFICATION_TYPE":"U","NORAD_CAT_ID":28059,"ELEMENT_SET_NO":999,"REV_AT_EPOCH":19075,"BSTAR":0.00010797384,"MEAN_MOTION_DOT":4.21e-6,"MEAN_MOTION_DDOT":0},{"OBJECT_NAME":"CZ-2C R/B","OBJECT_ID":"2004-012C","EPOCH":"2026-04-07T04:00:29.627712","MEAN_MOTION":15.68260743,"ECCENTRICITY":0.00137748,"INCLINATION":97.7161,"RA_OF_ASC_NODE":165.2259,"ARG_OF_PERICENTER":199.6359,"MEAN_ANOMALY":160.4373,"EPHEMERIS_TYPE":0,"CLASSIFICATION_TYPE":"U","NORAD_CAT_ID":28222,"ELEMENT_SET_NO":999,"REV_AT_EPOCH":20873,"BSTAR":0.00066985943,"MEAN_MOTION_DOT":0.00075654,"MEAN_MOTION_DDOT":0},{"OBJECT_NAME":"SL-16 R/B","OBJECT_ID":"2004-021B","EPOCH":"2026-04-07T05:41:21.523488","MEAN_MOTION":14.14602148,"ECCENTRICITY":0.00056396,"INCLINATION":71.0013,"RA_OF_ASC_NODE":172.5861,"ARG_OF_PERICENTER":333.2811,"MEAN_ANOMALY":26.802,"EPHEMERIS_TYPE":0,"CLASSIFICATION_TYPE":"U","NORAD_CAT_ID":28353,"ELEMENT_SET_NO":999,"REV_AT_EPOCH":12687,"BSTAR":0.00019386343,"MEAN_MOTION_DOT":3.25e-6,"MEAN_MOTION_DDOT":0},{"OBJECT_NAME":"CZ-4B R/B","OBJECT_ID":"2004-035C","EPOCH":"2026-04-07T01:04:03.910944","MEAN_MOTION":15.2959488,"ECCENTRICITY":0.0030503,"INCLINATION":97.3446,"RA_OF_ASC_NODE":130.9496,"ARG_OF_PERICENTER":225.5303,"MEAN_ANOMALY":134.3443,"EPHEMERIS_TYPE":0,"CLASSIFICATION_TYPE":"U","NORAD_CAT_ID":28415,"ELEMENT_SET_NO":999,"REV_AT_EPOCH":18424,"BSTAR":0.00032758737,"MEAN_MOTION_DOT":9.453e-5,"MEAN_MOTION_DDOT":0},{"OBJECT_NAME":"CZ-2C R/B","OBJECT_ID":"2004-046B","EPOCH":"2026-04-07T03:55:54.525792","MEAN_MOTION":14.27004095,"ECCENTRICITY":0.01405592,"INCLINATION":98.1973,"RA_OF_ASC_NODE":10.3734,"ARG_OF_PERICENTER":70.8311,"MEAN_ANOMALY":290.8024,"EPHEMERIS_TYPE":0,"CLASSIFICATION_TYPE":"U","NORAD_CAT_ID":28480,"ELEMENT_SET_NO":999,"REV_AT_EPOCH":11256,"BSTAR":9.5856889e-5,"MEAN_MOTION_DOT":2.19e-6,"MEAN_MOTION_DDOT":0},{"OBJECT_NAME":"ARIANE 5 R/B","OBJECT_ID":"2004-049H","EPOCH":"2026-04-07T04:42:47.762496","MEAN_MOTION":14.85324797,"ECCENTRICITY":0.00828281,"INCLINATION":98.2668,"RA_OF_ASC_NODE":266.7291,"ARG_OF_PERICENTER":258.5254,"MEAN_ANOMALY":100.6649,"EPHEMERIS_TYPE":0,"CLASSIFICATION_TYPE":"U","NORAD_CAT_ID":28499,"ELEMENT_SET_NO":999,"REV_AT_EPOCH":15002,"BSTAR":0.00012900884,"MEAN_MOTION_DOT":1.113e-5,"MEAN_MOTION_DDOT":0},{"OBJECT_NAME":"CZ-2D R/B","OBJECT_ID":"2005-024B","EPOCH":"2026-04-07T00:50:06.108288","MEAN_MOTION":15.62959546,"ECCENTRICITY":0.00019546,"INCLINATION":97.3567,"RA_OF_ASC_NODE":113.2737,"ARG_OF_PERICENTER":254.2765,"MEAN_ANOMALY":105.8278,"EPHEMERIS_TYPE":0,"CLASSIFICATION_TYPE":"U","NORAD_CAT_ID":28738,"ELEMENT_SET_NO":999,"REV_AT_EPOCH":14420,"BSTAR":0.00055450824,"MEAN_MOTION_DOT":0.00050295,"MEAN_MOTION_DDOT":0}]
