HELIOS 1B               
1 25977U 99064A   26097.16326844  .00001797  00000+0  20311-3 0  9999
2 25977  98.1659   0.2402 0001325  41.4302 318.7013 14.87819047689491
TERRA                   
1 25994U 99068A   26097.20180395  .00000517  00000+0  11425-3 0  9991
2 25994  97.9534 149.5387 0003661  93.4204 309.1852 14.61047438399246
SL-16 R/B               
1 26070U 00006B   26097.20233486 -.00000040  00000+0  39753-5 0  9999
2 26070  71.0044  37.8813 0015055 145.0489 215.1625 14.15831507352591
TITAN 4B R/B            
1 26474U 00047B   26097.11867789  .00003425  00000+0  21554-3 0  9998
2 26474  67.9897 320.5557 0040725   2.3671 357.7663 15.09830204397205
ENVISAT                 
1 27386U 02009A   26096.83551656  .00000171  00000+0  69242-4 0  9994
2 27386  98.3773  49.7710 0001163  82.5432 307.1961 14.39047524263229
IDEFIX & ARIANE 42P R/B 
1 27422U 02021B   26097.23276300  .00000342  00000+0  14619-3 0  9991
2 27422  98.5900  35.5037 0012914 101.9300 258.3331 14.31047040248108
AQUA                    
1 27424U 02022A   26097.23595405  .00001200  00000+0  24890-3 0  9990
2 27424  98.4222  65.1316 0001503 113.7367  11.4108 14.62047375272901
CZ-4B R/B               
1 27432U 02024C   26097.22107403  .00000043  00000+0  45382-4 0  9991
2 27432  98.8779 150.4760 0049177 302.6180 101.0472 14.14553112233278
MIDORI II (ADEOS-II)    
1 27597U 02056A   26097.15540981  .00000377  00000+0  16579-3 0  9997
2 27597  98.7818  55.8388 0000255  27.7733 332.3462 14.29308419214361
H-2A R/B                
1 27601U 02056E   26097.17038595  .00000391  00000+0  15110-3 0  9994
2 27601  98.3252  56.4605 0071406  76.9399 293.5520 14.33782256218192
CZ-4B R/B               
1 28059U 03049C   26097.26580728  .00000421  00000+0  10797-3 0  9995
2 28059  98.6900  93.2971 0048822 143.4066 217.0481 14.55047530190756
CZ-2C R/B               
1 28222U 04012C   26097.16700958  .00075654  00000+0  66986-3 0  9997
2 28222  97.7161 165.2259 0013774 199.6359 160.4373 15.68260743208739
SL-16 R/B               
1 28353U 04021B   26097.23705467  .00000325  00000+0  19386-3 0  9995
2 28353  71.0013 172.5861 0005639 333.2811  26.8020 14.14602148126872
CZ-4B R/B               
1 28415U 04035C   26097.04448971  .00009453  00000+0  32759-3 0  9992
2 28415  97.3446 130.9496 0030503 225.5303 134.3443 15.29594880184240
CZ-2C R/B               
1 28480U 04046B   26097.16382553  .00000219  00000+0  95857-4 0  9992
2 28480  98.1973  10.3734 0140559  70.8311 290.8024 14.27004095112565
ARIANE 5 R/B            
1 28499U 04049H   26097.19638614  .00001113  00000+0  12901-3 0  9992
2 28499  98.2668 266.7291 0082828 258.5254 100.6649 14.85324797150029
CZ-2D R/B               
1 28738U 05024B   26097.03479292  .00050295  00000+0  55451-3 0  9992
2 28738  97.3567 113.2737 0001954 254.2765 105.8278 15.62959546144205
